[{"OBJECT_NAME":"UM5-RIBAT","OBJECT_ID":"2024-149CQ","EPOCH":"2026-03-09T19:05:41.327808","MEAN_MOTION":15.00468196,"ECCENTRICITY":0.00032721,"INCLINATION":97.6776,"RA_OF_ASC_NODE":147.9138,"ARG_OF_PERICENTER":87.0399,"MEAN_ANOMALY":273.1199,"EPHEMERIS_TYPE":0,"CLASSIFICATION_TYPE":"U","NORAD_CAT_ID":60554,"ELEMENT_SET_NO":999,"REV_AT_EPOCH":8528,"BSTAR":0.00037992942,"MEAN_MOTION_DOT":4.725e-5,"MEAN_MOTION_DDOT":0},{"OBJECT_NAME":"OKEAN-3","OBJECT_ID":"1991-039A","EPOCH":"2026-03-09T19:29:17.530944","MEAN_MOTION":15.0480588,"ECCENTRICITY":0.00139411,"INCLINATION":82.519,"RA_OF_ASC_NODE":336.7249,"ARG_OF_PERICENTER":337.9296,"MEAN_ANOMALY":22.1329,"EPHEMERIS_TYPE":0,"CLASSIFICATION_TYPE":"U","NORAD_CAT_ID":21397,"ELEMENT_SET_NO":999,"REV_AT_EPOCH":86505,"BSTAR":0.00031884915,"MEAN_MOTION_DOT":4.536e-5,"MEAN_MOTION_DDOT":0}]
